OBJECT_NAME,OBJECT_ID,EPOCH,MEAN_MOTION,ECCENTRICITY,INCLINATION,RA_OF_ASC_NODE,ARG_OF_PERICENTER,MEAN_ANOMALY,EPHEMERIS_TYPE,CLASSIFICATION_TYPE,NORAD_CAT_ID,ELEMENT_SET_NO,REV_AT_EPOCH,BSTAR,MEAN_MOTION_DOT,MEAN_MOTION_DDOT
HAWK-5A,2022-057AB,2026-07-22T16:46:07.559040,15.52520606,.00029245,97.6635,4.8796,300.9143,59.1822,0,U,52757,999,23185,.32107618E-3,.19598E-3,0
HAWK-6B,2023-011A,2026-07-23T04:20:30.169536,15.23205605,.00045868,40.4981,142.0832,280.0862,79.9430,0,U,55324,999,19333,.18476158E-3,.427E-4,0
HAWK-6C,2023-011C,2026-07-23T04:19:35.563008,15.23204661,.00050523,40.4973,138.9222,275.8701,84.1532,0,U,55326,999,19334,.17736657E-3,.4091E-4,0
HAWK-6A,2023-011D,2026-07-23T05:54:03.461760,15.23206114,.00047795,40.4985,140.1672,272.9929,87.0333,0,U,55327,999,19335,.18101733E-3,.418E-4,0
HAWK-7A,2023-054P,2026-07-23T04:54:54.058176,15.27693531,.00009453,97.2652,90.6260,266.9851,93.1281,0,U,56191,999,18252,.20062026E-3,.5357E-4,0
HAWK-7B,2023-054R,2026-07-23T04:54:47.997216,15.27695661,.00004456,97.2682,88.9021,353.8356,6.2878,0,U,56193,999,18252,.20413432E-3,.5452E-4,0
HAWK-7C,2023-054Y,2026-07-23T04:54:37.072800,15.27694220,.00003291,97.2656,89.6598,252.4022,107.7182,0,U,56200,999,18252,.20103875E-3,.5368E-4,0
